start=new Date('2022-03-25T00:00:00.000Z').valueOf();
sats=[{"ELEMENT_SET_NO":"999","EPOCH":"2022-03-25T00:00:02.000160","TLE_LINE1":"1 50199U 21125AV  22084.00002315 -.00720213  00000-0 -21215-1 0  9991","TLE_LINE2":"2 50199  53.2171 251.0300 0001449  49.7683 258.0018 15.37026956 17973","REV_AT_EPOCH":"1797","MEAN_MOTION_DDOT":"0.0000000000000","FILE":"3372942","GP_ID":"199596688","OBJECT_ID":"2021-125AV","MEAN_ELEMENT_THEORY":"SGP4","BSTAR":"-0.02121500000000","REF_FRAME":"TEME","TIME_SYSTEM":"UTC","DECAY_DATE":null,"MEAN_ANOMALY":"258.0018","NORAD_CAT_ID":"50199","SITE":"AFWTR","APOAPSIS":"455.899","ARG_OF_PERICENTER":"49.7683","MEAN_MOTION":"15.37026956","INCLINATION":"53.2171","LAUNCH_DATE":"2021-12-18","EPHEMERIS_TYPE":"0","COUNTRY_CODE":"US","CLASSIFICATION_TYPE":"U","ECCENTRICITY":"0.00014490","OBJECT_TYPE":"PAYLOAD","PERIAPSIS":"453.918","RA_OF_ASC_NODE":"251.0300","PERIOD":"93.687","CENTER_NAME":"EARTH","SEMIMAJOR_AXIS":"6833.043","RCS_SIZE":"LARGE","MEAN_MOTION_DOT":"-0.00720213","OBJECT_NAME":"STARLINK-3270"},{"COUNTRY_CODE":"US","EPHEMERIS_TYPE":"0","LAUNCH_DATE":"2021-12-18","MEAN_MOTION":"15.38551929","INCLINATION":"53.2173","ARG_OF_PERICENTER":"59.7213","PERIOD":"93.595","RA_OF_ASC_NODE":"251.0442","OBJECT_TYPE":"PAYLOAD","ECCENTRICITY":"0.00012220","PERIAPSIS":"449.558","CLASSIFICATION_TYPE":"U","SEMIMAJOR_AXIS":"6828.528","CENTER_NAME":"EARTH","OBJECT_NAME":"STARLINK-3235","RCS_SIZE":"LARGE","MEAN_MOTION_DOT":"-0.00717570","TLE_LINE1":"1 50200U 21125AW  22084.00002315 -.00717570  00000-0 -20104-1 0  9992","TLE_LINE2":"2 50200  53.2173 251.0442 0001222  59.7213   4.0516 15.38551929 17970","EPOCH":"2022-03-25T00:00:02.000160","ELEMENT_SET_NO":"999","GP_ID":"199596680","FILE":"3372942","MEAN_MOTION_DDOT":"0.0000000000000","REV_AT_EPOCH":"1797","TIME_SYSTEM":"UTC","DECAY_DATE":null,"REF_FRAME":"TEME","MEAN_ELEMENT_THEORY":"SGP4","OBJECT_ID":"2021-125AW","BSTAR":"-0.02010400000000","APOAPSIS":"451.227","SITE":"AFWTR","NORAD_CAT_ID":"50200","MEAN_ANOMALY":"4.0516"},{"SITE":"AFWTR","APOAPSIS":"450.332","MEAN_ANOMALY":"53.9848","NORAD_CAT_ID":"50201","TIME_SYSTEM":"UTC","DECAY_DATE":null,"OBJECT_ID":"2021-125AX","MEAN_ELEMENT_THEORY":"SGP4","BSTAR":"-0.01985600000000","REF_FRAME":"TEME","FILE":"3372942","GP_ID":"199596369","REV_AT_EPOCH":"1798","MEAN_MOTION_DDOT":"0.0000000000000","EPOCH":"2022-03-25T00:00:02.000160","TLE_LINE1":"1 50201U 21125AX  22084.00002315 -.00717479  00000-0 -19856-1 0  9993","TLE_LINE2":"2 50201  53.2172 251.0399 0001519  43.6607  53.9848 15.38923103 17988","ELEMENT_SET_NO":"999","OBJECT_NAME":"STARLINK-3255","RCS_SIZE":"LARGE","MEAN_MOTION_DOT":"-0.00717479","CENTER_NAME":"EARTH","SEMIMAJOR_AXIS":"6827.430","ECCENTRICITY":"0.00015190","OBJECT_TYPE":"PAYLOAD","PERIAPSIS":"448.257","PERIOD":"93.572","RA_OF_ASC_NODE":"251.0399","CLASSIFICATION_TYPE":"U","LAUNCH_DATE":"2021-12-18","COUNTRY_CODE":"US","EPHEMERIS_TYPE":"0","ARG_OF_PERICENTER":"43.6607","MEAN_MOTION":"15.38923103","INCLINATION":"53.2172"},{"CLASSIFICATION_TYPE":"U","PERIOD":"93.950","RA_OF_ASC_NODE":"250.4619","OBJECT_TYPE":"PAYLOAD","PERIAPSIS":"466.641","ECCENTRICITY":"0.00014960","INCLINATION":"53.2171","MEAN_MOTION":"15.32732662","ARG_OF_PERICENTER":"57.5925","EPHEMERIS_TYPE":"0","COUNTRY_CODE":"US","LAUNCH_DATE":"2021-12-18","MEAN_MOTION_DOT":"-0.00719209","RCS_SIZE":"LARGE","OBJECT_NAME":"STARLINK-3256","SEMIMAJOR_AXIS":"6845.800","CENTER_NAME":"EARTH","MEAN_MOTION_DDOT":"0.0000000000000","REV_AT_EPOCH":"1798","GP_ID":"199596372","FILE":"3372942","ELEMENT_SET_NO":"999","TLE_LINE2":"2 50202  53.2171 250.4619 0001496  57.5925 173.6157 15.32732662 17982","TLE_LINE1":"1 50202U 21125AY  22084.00002315 -.00719209  00000-0 -24312-1 0  9990","EPOCH":"2022-03-25T00:00:02.000160","NORAD_CAT_ID":"50202","MEAN_ANOMALY":"173.6157","SITE":"AFWTR","APOAPSIS":"468.690","REF_FRAME":"TEME","BSTAR":"-0.02431200000000","OBJECT_ID":"2021-125AY","MEAN_ELEMENT_THEORY":"SGP4","DECAY_DATE":null,"TIME_SYSTEM":"UTC"},{"MEAN_ANOMALY":"19.5342","NORAD_CAT_ID":"50203","SITE":"AFWTR","APOAPSIS":"450.894","BSTAR":"-0.02001800000000","MEAN_ELEMENT_THEORY":"SGP4","OBJECT_ID":"2021-125AZ","REF_FRAME":"TEME","DECAY_DATE":null,"TIME_SYSTEM":"UTC","REV_AT_EPOCH":"1537","MEAN_MOTION_DDOT":"0.0000000000000","FILE":"3372942","GP_ID":"199596362","ELEMENT_SET_NO":"999","EPOCH":"2022-03-25T00:00:02.000160","TLE_LINE2":"2 50203  53.2172 251.0431 0001279  55.4208  19.5342 15.38677675 15376","TLE_LINE1":"1 50203U 21125AZ  22084.00002315 -.00717476  00000-0 -20018-1 0  9994","MEAN_MOTION_DOT":"-0.00717476","RCS_SIZE":"LARGE","OBJECT_NAME":"STARLINK-3257","CENTER_NAME":"EARTH","SEMIMAJOR_AXIS":"6828.156","CLASSIFICATION_TYPE":"U","OBJECT_TYPE":"PAYLOAD","ECCENTRICITY":"0.00012790","PERIAPSIS":"449.147","PERIOD":"93.587","RA_OF_ASC_NODE":"251.0431","ARG_OF_PERICENTER":"55.4208","INCLINATION":"53.2172","MEAN_MOTION":"15.38677675","LAUNCH_DATE":"2021-12-18","EPHEMERIS_TYPE":"0","COUNTRY_CODE":"US"},{"DECAY_DATE":null,"TIME_SYSTEM":"UTC","REF_FRAME":"TEME","BSTAR":"-0.01964500000000","OBJECT_ID":"2021-125BA","MEAN_ELEMENT_THEORY":"SGP4","SITE":"AFWTR","APOAPSIS":"449.296","NORAD_CAT_ID":"50204","MEAN_ANOMALY":"85.1342","TLE_LINE2":"2 50204  53.2173 251.0322 0001531  47.3889  85.1342 15.39276182 15371","TLE_LINE1":"1 50204U 21125BA  22084.00002315 -.00718120  00000-0 -19645-1 0  9996","EPOCH":"2022-03-25T00:00:02.000160","ELEMENT_SET_NO":"999","GP_ID":"199596375","FILE":"3372942","MEAN_MOTION_DDOT":"0.0000000000000","REV_AT_EPOCH":"1537","SEMIMAJOR_AXIS":"6826.385","CENTER_NAME":"EARTH","OBJECT_NAME":"STARLINK-3254","RCS_SIZE":"LARGE","MEAN_MOTION_DOT":"-0.00718120","EPHEMERIS_TYPE":"0","COUNTRY_CODE":"US","LAUNCH_DATE":"2021-12-18","INCLINATION":"53.2173","MEAN_MOTION":"15.39276182","ARG_OF_PERICENTER":"47.3889","RA_OF_ASC_NODE":"251.0322","PERIOD":"93.550","PERIAPSIS":"447.205","OBJECT_TYPE":"PAYLOAD","ECCENTRICITY":"0.00015310","CLASSIFICATION_TYPE":"U"},{"SEMIMAJOR_AXIS":"6727.817","CENTER_NAME":"EARTH","RCS_SIZE":"LARGE","MEAN_MOTION_DOT":"-0.00060511","OBJECT_NAME":"STARLINK-3260","INCLINATION":"53.2147","MEAN_MOTION":"15.73227349","ARG_OF_PERICENTER":"4.3230","EPHEMERIS_TYPE":"0","COUNTRY_CODE":"US","LAUNCH_DATE":"2021-12-18","CLASSIFICATION_TYPE":"U","RA_OF_ASC_NODE":"244.4549","PERIOD":"91.532","PERIAPSIS":"346.707","OBJECT_TYPE":"PAYLOAD","ECCENTRICITY":"0.00044220","REF_FRAME":"TEME","BSTAR":"-0.00042901000000","MEAN_ELEMENT_THEORY":"SGP4","OBJECT_ID":"2021-125BB","DECAY_DATE":null,"TIME_SYSTEM":"UTC","NORAD_CAT_ID":"50205","MEAN_ANOMALY":"22.4462","APOAPSIS":"352.657","SITE":"AFWTR","ELEMENT_SET_NO":"999","TLE_LINE2":"2 50205  53.2147 244.4549 0004422   4.3230  22.4462 15.73227349 18071","TLE_LINE1":"1 50205U 21125BB  22084.00002315 -.00060511  00000-0 -42901-3 0  9994","EPOCH":"2022-03-25T00:00:02.000160","MEAN_MOTION_DDOT":"0.0000000000000","REV_AT_EPOCH":"1807","GP_ID":"199596681","FILE":"3372942"},{"OBJECT_ID":"2021-125BC","MEAN_ELEMENT_THEORY":"SGP4","BSTAR":"-0.01971000000000","REF_FRAME":"TEME","TIME_SYSTEM":"UTC","DECAY_DATE":null,"MEAN_ANOMALY":"70.1230","NORAD_CAT_ID":"50206","SITE":"AFWTR","APOAPSIS":"449.561","ELEMENT_SET_NO":"999","EPOCH":"2022-03-25T00:00:02.000160","TLE_LINE1":"1 50206U 21125BC  22084.00002315 -.00717949  00000-0 -19710-1 0  9999","TLE_LINE2":"2 50206  53.2172 251.0362 0001455  50.0713  70.1230 15.39168793 16377","REV_AT_EPOCH":"1637","MEAN_MOTION_DDOT":"0.0000000000000","FILE":"3372942","GP_ID":"199596689","CENTER_NAME":"EARTH","SEMIMAJOR_AXIS":"6826.703","MEAN_MOTION_DOT":"-0.00717949","RCS_SIZE":"LARGE","OBJECT_NAME":"STARLINK-3258","ARG_OF_PERICENTER":"50.0713","MEAN_MOTION":"15.39168793","INCLINATION":"53.2172","LAUNCH_DATE":"2021-12-18","COUNTRY_CODE":"US","EPHEMERIS_TYPE":"0","CLASSIFICATION_TYPE":"U","PERIAPSIS":"447.575","OBJECT_TYPE":"PAYLOAD","ECCENTRICITY":"0.00014550","RA_OF_ASC_NODE":"251.0362","PERIOD":"93.557"},{"RCS_SIZE":"LARGE","MEAN_MOTION_DOT":"-0.00717525","OBJECT_NAME":"STARLINK-3262","CENTER_NAME":"EARTH","SEMIMAJOR_AXIS":"6827.057","CLASSIFICATION_TYPE":"U","ECCENTRICITY":"0.00015650","OBJECT_TYPE":"PAYLOAD","PERIAPSIS":"447.854","PERIOD":"93.564","RA_OF_ASC_NODE":"251.0386","ARG_OF_PERICENTER":"43.7540","INCLINATION":"53.2172","MEAN_MOTION":"15.39048926","LAUNCH_DATE":"2021-12-18","COUNTRY_CODE":"US","EPHEMERIS_TYPE":"0","MEAN_ANOMALY":"64.9639","NORAD_CAT_ID":"50207","APOAPSIS":"449.991","SITE":"AFWTR","BSTAR":"-0.01977500000000","OBJECT_ID":"2021-125BD","MEAN_ELEMENT_THEORY":"SGP4","REF_FRAME":"TEME","DECAY_DATE":null,"TIME_SYSTEM":"UTC","REV_AT_EPOCH":"1644","MEAN_MOTION_DDOT":"0.0000000000000","FILE":"3372942","GP_ID":"199596373","ELEMENT_SET_NO":"999","EPOCH":"2022-03-25T00:00:02.000160","TLE_LINE2":"2 50207  53.2172 251.0386 0001565  43.7540  64.9639 15.39048926 16440","TLE_LINE1":"1 50207U 21125BD  22084.00002315 -.00717525  00000-0 -19775-1 0  9991"},{"NORAD_CAT_ID":"50803","MEAN_ANOMALY":"336.3559","APOAPSIS":"446.452","SITE":"AFETR","REF_FRAME":"TEME","BSTAR":"-0.01909000000000","OBJECT_ID":"2022-001A","MEAN_ELEMENT_THEORY":"SGP4","DECAY_DATE":null,"TIME_SYSTEM":"UTC","MEAN_MOTION_DDOT":"0.0000000000000","REV_AT_EPOCH":"368","GP_ID":"199622458","FILE":"3373054","ELEMENT_SET_NO":"999","TLE_LINE2":"2 50803  53.2174 181.6296 0001632  36.4289 336.3559 15.40261631  3687","TLE_LINE1":"1 50803U 22001A   22083.91667824 -.00720793  00000-0 -19090-1 0  9999","EPOCH":"2022-03-24T22:00:00.999936","MEAN_MOTION_DOT":"-0.00720793","RCS_SIZE":"LARGE","OBJECT_NAME":"STARLINK-3321","SEMIMAJOR_AXIS":"6823.474","CENTER_NAME":"EARTH","CLASSIFICATION_TYPE":"U","RA_OF_ASC_NODE":"181.6296","PERIOD":"93.491","OBJECT_TYPE":"PAYLOAD","ECCENTRICITY":"0.00016320","PERIAPSIS":"444.225","INCLINATION":"53.2174","MEAN_MOTION":"15.40261631","ARG_OF_PERICENTER":"36.4289","EPHEMERIS_TYPE":"0","COUNTRY_CODE":"US","LAUNCH_DATE":"2022-01-06"}];
